{"type": "FeatureCollection", "features": [ {"type": "Feature", "properties": {"norad_id": 66919, "name": "HULIANWANG DIGUI-109", "group": "last-30-days", "lat": 23.420697575365857, "lon": -128.4052071383784, "alt_km": 883.7332832962702, "timestamp": "2025-12-23T14:49:07.967426+00:00", "meta": {"OBJECT_NAME": "HULIANWANG DIGUI-109", "OBJECT_ID": "2025-285E", "EPOCH": "2025-12-23T07:16:44.859072", "MEAN_MOTION": 14.03727249, "ECCENTRICITY": 0.0007911, "INCLINATION": 50.0075, "RA_OF_ASC_NODE": 74.196, "ARG_OF_PERICENTER": 327.6524, "MEAN_ANOMALY": 32.3894, "EPHEMERIS_TYPE": 0, "CLASSIFICATION_TYPE": "U", "NORAD_CAT_ID": 66919, "ELEMENT_SET_NO": 999, "REV_AT_EPOCH": 239, "BSTAR": 0.00012738944, "MEAN_MOTION_DOT": 5e-07, "MEAN_MOTION_DDOT": 0}, "tle": {"line1": "1 66919U 25285E   25357.30329698  .00000050  00000+0  12739-3 0  9994", "line2": "2 66919  50.0075  74.1960 0007911 327.6524  32.3894 14.03727249  2396"}}, "geometry": {"type": "Point", "coordinates": [-128.4052071383784, 23.420697575365857]}}, {"type": "Feature", "properties": {"norad_id": 66920, "name": "HULIANWANG DIGUI-110", "group": "last-30-days", "lat": 20.61004551758356, "lon": -125.48271762537314, "alt_km": 882.6364651307003, "timestamp": "2025-12-23T14:49:07.967442+00:00", "meta": {"OBJECT_NAME": "HULIANWANG DIGUI-110", "OBJECT_ID": "2025-285F", "EPOCH": "2025-12-23T07:15:37.424736", "MEAN_MOTION": 14.03683422, "ECCENTRICITY": 0.00056191, "INCLINATION": 50.0119, "RA_OF_ASC_NODE": 74.1987, "ARG_OF_PERICENTER": 324.7806, "MEAN_ANOMALY": 35.2727, "EPHEMERIS_TYPE": 0, "CLASSIFICATION_TYPE": "U", "NORAD_CAT_ID": 66920, "ELEMENT_SET_NO": 999, "REV_AT_EPOCH": 239, "BSTAR": 0.00011180537, "MEAN_MOTION_DOT": 2.5e-07, "MEAN_MOTION_DDOT": 0}, "tle": {"line1": "1 66920U 25285F   25357.30251649  .00000025  00000+0  11181-3 0  9998", "line2": "2 66920  50.0119  74.1987 0005619 324.7806  35.2727 14.03683422  2391"}}, "geometry": {"type": "Point", "coordinates": [-125.48271762537314, 20.61004551758356]}}, {"type": "Feature", "properties": {"norad_id": 66921, "name": "HULIANWANG DIGUI-111", "group": "last-30-days", "lat": 17.708161782390228, "lon": -122.63148757669808, "alt_km": 884.0402718983069, "timestamp": "2025-12-23T14:49:07.967453+00:00", "meta": {"OBJECT_NAME": "HULIANWANG DIGUI-111", "OBJECT_ID": "2025-285G", "EPOCH": "2025-12-23T07:14:28.729824", "MEAN_MOTION": 14.03632972, "ECCENTRICITY": 0.00066992, "INCLINATION": 50.0124, "RA_OF_ASC_NODE": 74.1979, "ARG_OF_PERICENTER": 328.5764, "MEAN_ANOMALY": 31.474, "EPHEMERIS_TYPE": 0, "CLASSIFICATION_TYPE": "U", "NORAD_CAT_ID": 66921, "ELEMENT_SET_NO": 999, "REV_AT_EPOCH": 239, "BSTAR": 0.00011450788, "MEAN_MOTION_DOT": 2.9e-07, "MEAN_MOTION_DDOT": 0}, "tle": {"line1": "1 66921U 25285G   25357.30172141  .00000029  00000+0  11451-3 0  9992", "line2": "2 66921  50.0124  74.1979 0006699 328.5764  31.4740 14.03632972  2390"}}, "geometry": {"type": "Point", "coordinates": [-122.63148757669808, 17.708161782390228]}}, {"type": "Feature", "properties": {"norad_id": 66922, "name": "HULIANWANG DIGUI-112", "group": "last-30-days", "lat": 13.640936968696824, "lon": -118.8585911431691, "alt_km": 884.4629827694607, "timestamp": "2025-12-23T14:49:07.967465+00:00", "meta": {"OBJECT_NAME": "HULIANWANG DIGUI-112", "OBJECT_ID": "2025-285H", "EPOCH": "2025-12-23T07:12:56.364768", "MEAN_MOTION": 14.03662978, "ECCENTRICITY": 0.00065212, "INCLINATION": 50.0096, "RA_OF_ASC_NODE": 74.1846, "ARG_OF_PERICENTER": 339.2312, "MEAN_ANOMALY": 20.8326, "EPHEMERIS_TYPE": 0, "CLASSIFICATION_TYPE": "U", "NORAD_CAT_ID": 66922, "ELEMENT_SET_NO": 999, "REV_AT_EPOCH": 239, "BSTAR": 0.0001238419, "MEAN_MOTION_DOT": 4.4e-07, "MEAN_MOTION_DDOT": 0}, "tle": {"line1": "1 66922U 25285H   25357.30065237  .00000044  00000+0  12384-3 0  9993", "line2": "2 66922  50.0096  74.1846 0006521 339.2312  20.8326 14.03662978  2395"}}, "geometry": {"type": "Point", "coordinates": [-118.8585911431691, 13.640936968696824]}}, {"type": "Feature", "properties": {"norad_id": 66923, "name": "HULIANWANG DIGUI-113", "group": "last-30-days", "lat": 9.067775432798184, "lon": -114.81345147643881, "alt_km": 883.9019558722002, "timestamp": "2025-12-23T14:49:07.967482+00:00", "meta": {"OBJECT_NAME": "HULIANWANG DIGUI-113", "OBJECT_ID": "2025-285J", "EPOCH": "2025-12-23T07:11:13.456320", "MEAN_MOTION": 14.03700887, "ECCENTRICITY": 0.00051278, "INCLINATION": 50.0095, "RA_OF_ASC_NODE": 74.18, "ARG_OF_PERICENTER": 333.7511, "MEAN_ANOMALY": 26.3133, "EPHEMERIS_TYPE": 0, "CLASSIFICATION_TYPE": "U", "NORAD_CAT_ID": 66923, "ELEMENT_SET_NO": 999, "REV_AT_EPOCH": 239, "BSTAR": 0.00011699168, "MEAN_MOTION_DOT": 3.4e-07, "MEAN_MOTION_DDOT": 0}, "tle": {"line1": "1 66923U 25285J   25357.29946130  .00000034  00000+0  11699-3 0  9999", "line2": "2 66923  50.0095  74.1800 0005127 333.7511  26.3133 14.03700887  2395"}}, "geometry": {"type": "Point", "coordinates": [-114.81345147643881, 9.067775432798184]}}, {"type": "Feature", "properties": {"norad_id": 66924, "name": "CZ-8A R/B", "group": "last-30-days", "lat": -40.07583036994843, "lon": 24.92184610840728, "alt_km": 873.0874555211685, "timestamp": "2025-12-23T14:49:07.967505+00:00", "meta": {"OBJECT_NAME": "CZ-8A R/B", "OBJECT_ID": "2025-285K", "EPOCH": "2025-12-23T05:01:55.865568", "MEAN_MOTION": 14.30505767, "ECCENTRICITY": 0.01192482, "INCLINATION": 50.0083, "RA_OF_ASC_NODE": 71.5871, "ARG_OF_PERICENTER": 143.6553, "MEAN_ANOMALY": 217.2535, "EPHEMERIS_TYPE": 0, "CLASSIFICATION_TYPE": "U", "NORAD_CAT_ID": 66924, "ELEMENT_SET_NO": 999, "REV_AT_EPOCH": 242, "BSTAR": 5.5302115e-05, "MEAN_MOTION_DOT": -1e-07, "MEAN_MOTION_DDOT": 0}, "tle": {"line1": "1 66924U 25285K   25357.20967437 -.00000010  00000+0  55302-4 0  9999", "line2": "2 66924  50.0083  71.5871 0119248 143.6553 217.2535 14.30505767  2427"}}, "geometry": {"type": "Point", "coordinates": [24.92184610840728, -40.07583036994843]}}, {"type": "Feature", "properties": {"norad_id": 66925, "name": "STARLINK-35945", "group": "last-30-days", "lat": -46.41683375685229, "lon": -131.99990237755605, "alt_km": 365.22567791454367, "timestamp": "2025-12-23T14:49:07.967528+00:00", "meta": {"OBJECT_NAME": "STARLINK-35945", "OBJECT_ID": "2025-286A", "EPOCH": "2025-12-23T06:00:00.999648", "MEAN_MOTION": 15.71263305, "ECCENTRICITY": 9.74e-05, "INCLINATION": 53.159, "RA_OF_ASC_NODE": 357.8349, "ARG_OF_PERICENTER": 82.2238, "MEAN_ANOMALY": 243.994, "EPHEMERIS_TYPE": 0, "CLASSIFICATION_TYPE": "U", "NORAD_CAT_ID": 66925, "ELEMENT_SET_NO": 999, "REV_AT_EPOCH": 368, "BSTAR": -0.017110669, "MEAN_MOTION_DOT": -0.01957553, "MEAN_MOTION_DDOT": 0}, "tle": {"line1": "1 66925U 25286A   25357.25001157 -.01957553  00000+0 -17111-1 0  9992", "line2": "2 66925  53.1590 357.8349 0000974  82.2238 243.9940 15.71263305  3688"}}, "geometry": {"type": "Point", "coordinates": [-131.99990237755605, -46.41683375685229]}}, {"type": "Feature", "properties": {"norad_id": 66926, "name": "STARLINK-35942", "group": "last-30-days", "lat": -44.4794291208655, "lon": -136.55929361503217, "alt_km": 369.95794617902993, "timestamp": "2025-12-23T14:49:07.967550+00:00", "meta": {"OBJECT_NAME": "STARLINK-35942", "OBJECT_ID": "2025-286B", "EPOCH": "2025-12-23T06:00:00.999648", "MEAN_MOTION": 15.69584657, "ECCENTRICITY": 0.00010265, "INCLINATION": 53.1594, "RA_OF_ASC_NODE": 357.8376, "ARG_OF_PERICENTER": 94.4999, "MEAN_ANOMALY": 230.2014, "EPHEMERIS_TYPE": 0, "CLASSIFICATION_TYPE": "U", "NORAD_CAT_ID": 66926, "ELEMENT_SET_NO": 999, "REV_AT_EPOCH": 368, "BSTAR": -0.018589521, "MEAN_MOTION_DOT": -0.01978491, "MEAN_MOTION_DDOT": 0}, "tle": {"line1": "1 66926U 25286B   25357.25001157 -.01978491  00000+0 -18590-1 0  9999", "line2": "2 66926  53.1594 357.8376 0001026  94.4999 230.2014 15.69584657  3685"}}, "geometry": {"type": "Point", "coordinates": [-136.55929361503217, -44.4794291208655]}}, {"type": "Feature", "properties": {"norad_id": 66927, "name": "STARLINK-35943", "group": "last-30-days", "lat": -45.4919640203274, "lon": -134.26846762492127, "alt_km": 370.03019726114053, "timestamp": "2025-12-23T14:49:07.967568+00:00", "meta": {"OBJECT_NAME": "STARLINK-35943", "OBJECT_ID": "2025-286C", "EPOCH": "2025-12-23T06:00:00.999648", "MEAN_MOTION": 15.69585951, "ECCENTRICITY": 0.00010937, "INCLINATION": 53.159, "RA_OF_ASC_NODE": 357.8342, "ARG_OF_PERICENTER": 97.6579, "MEAN_ANOMALY": 228.9579, "EPHEMERIS_TYPE": 0, "CLASSIFICATION_TYPE": "U", "NORAD_CAT_ID": 66927, "ELEMENT_SET_NO": 999, "REV_AT_EPOCH": 368, "BSTAR": -0.018606535, "MEAN_MOTION_DOT": -0.01980234, "MEAN_MOTION_DDOT": 0}, "tle": {"line1": "1 66927U 25286C   25357.25001157 -.01980234  00000+0 -18607-1 0  9997", "line2": "2 66927  53.1590 357.8342 0001093  97.6579 228.9579 15.69585951  3686"}}, "geometry": {"type": "Point", "coordinates": [-134.26846762492127, -45.4919640203274]}}, {"type": "Feature", "properties": {"norad_id": 66928, "name": "STARLINK-35944", "group": "last-30-days", "lat": -43.42085459344973, "lon": -138.77113922916982, "alt_km": 369.9763609799411, "timestamp": "2025-12-23T14:49:07.967585+00:00", "meta": {"OBJECT_NAME": "STARLINK-35944", "OBJECT_ID": "2025-286D", "EPOCH": "2025-12-23T06:00:00.999648", "MEAN_MOTION": 15.69586038, "ECCENTRICITY": 0.00011333, "INCLINATION": 53.159, "RA_OF_ASC_NODE": 357.8418, "ARG_OF_PERICENTER": 92.7334, "MEAN_ANOMALY": 230.0487, "EPHEMERIS_TYPE": 0, "CLASSIFICATION_TYPE": "U", "NORAD_CAT_ID": 66928, "ELEMENT_SET_NO": 999, "REV_AT_EPOCH": 368, "BSTAR": -0.018610088, "MEAN_MOTION_DOT": -0.01980604, "MEAN_MOTION_DDOT": 0}, "tle": {"line1": "1 66928U 25286D   25357.25001157 -.01980604  00000+0 -18610-1 0  9993", "line2": "2 66928  53.1590 357.8418 0001133  92.7334 230.0487 15.69586038  3680"}}, "geometry": {"type": "Point", "coordinates": [-138.77113922916982, -43.42085459344973]}}]}